STARLINK-34703          
1 65387U 25191J   25261.91668981 -.01610392  00000+0 -29426-1 0  9998
2 65387  97.6076 130.7367 0001784  82.0802  71.2324 15.52330332  4373
STARLINK-34957          
1 65388U 25191K   25261.91668981 -.01612184  00000+0 -29461-1 0  9999
2 65388  97.6076 130.7374 0001848  79.6088  75.6256 15.52330850  4378
STARLINK-34993          
1 65389U 25191L   25261.91668981 -.01611068  00000+0 -29439-1 0  9995
2 65389  97.6077 130.7383 0001777  78.3607  78.7921 15.52331044  4373
STARLINK-35083          
1 65390U 25191M   25261.91668981 -.01606883  00000+0 -29357-1 0  9995
2 65390  97.6076 130.7390 0001899  82.8952  76.1815 15.52327533  4372
STARLINK-34786          
1 65391U 25191N   25261.91668981 -.01611389  00000+0 -29447-1 0  9993
2 65391  97.6076 130.7400 0001842  76.3593  84.6378 15.52329050  4376
STARLINK-35082          
1 65392U 25191P   25261.91668981 -.01365726  00000+0 -25046-1 0  9996
2 65392  97.6075 130.7408 0001554  75.0443  87.8952 15.52225341  4375
STARLINK-35097          
1 65393U 25191Q   25261.91668981 -.01689784  00000+0 -30999-1 0  9993
2 65393  97.6024 130.7417 0001769  79.4029  85.4249 15.52370546  4153
STARLINK-35058          
1 65394U 25191R   25261.91668981 -.01573339  00000+0 -28682-1 0  9998
2 65394  97.6030 130.7439 0002057  69.6914  97.0651 15.52323079  4379
STARLINK-35094          
1 65395U 25191S   25261.91668981 -.01512754  00000+0 -27987-1 0  9990
2 65395  97.6029 130.7462 0001778  68.3009 100.3813 15.52306593  4374
STARLINK-34811          
1 65396U 25191T   25261.91668981 -.01683833  00000+0 -30880-1 0  9994
2 65396  97.6024 130.7437 0001703  83.7973  86.7924 15.52368200  4374
STARLINK-34940          
1 65397U 25191U   25261.91668981 -.01670208  00000+0 -30610-1 0  9998
2 65397  97.6023 130.7448 0001627  84.6564  87.8565 15.52361368  4378
STARLINK-34931          
1 65398U 25191V   25261.91668981 -.01686595  00000+0 -30936-1 0  9996
2 65398  97.6024 130.7454 0001686  84.2278  90.2031 15.52369343  4377
STARLINK-34836          
1 65399U 25191W   25261.91668981 -.01681540  00000+0 -30836-1 0  9991
2 65399  97.6027 130.7470 0001664  79.6520  96.7012 15.52366224  4312
STARLINK-34876          
1 65400U 25191X   25261.91668981 -.01602432  00000+0 -29251-1 0  9996
2 65400  97.6024 130.7495 0001753  71.7308 108.4660 15.52343615  4268
STARLINK-34909          
1 65401U 25191Y   25261.91668981 -.01569241  00000+0 -28604-1 0  9998
2 65401  97.6023 130.7489 0002110  78.5484  99.7369 15.52318641  4370
STARLINK-34848          
1 65402U 25191Z   25261.91668981 -.01669601  00000+0 -30597-1 0  9994
2 65402  97.6031 130.7493 0001558  81.5177 100.5969 15.52362674  4319
STARLINK-35031          
1 65404U 25192A   25261.91668981  .00044074  00000+0  79729-3 0  9997
2 65404  53.1598 322.3314 0001201  88.4521 309.2985 15.49263675  4167
STARLINK-34830          
1 65405U 25192B   25261.91668981 -.01582793  00000+0 -25423-1 0  9996
2 65405  53.1592 321.9239 0001166 102.0069 137.5308 15.55299977  4110
STARLINK-35036          
1 65406U 25192C   25261.91668981 -.01582976  00000+0 -25427-1 0  9994
2 65406  53.1593 321.9196 0001237  77.4615 163.9933 15.55299444  4166
STARLINK-35035          
1 65407U 25192D   25261.91668981 -.01582106  00000+0 -25410-1 0  9992
2 65407  53.1594 321.9159 0001132  97.4133 145.9563 15.55300924  4163
STARLINK-35008          
1 65408U 25192E   25261.91668981 -.01577873  00000+0 -25338-1 0  9997
2 65408  53.1594 321.9118 0001276  79.8321 165.4572 15.55296589  4169
STARLINK-35022          
1 65409U 25192F   25261.91668981 -.01579607  00000+0 -25368-1 0  9998
2 65409  53.1594 321.9038 0001149 101.0903 148.0318 15.55298277  4165
STARLINK-35024          
1 65410U 25192G   25261.91668981 -.01581066  00000+0 -25393-1 0  9990
2 65410  53.1593 321.9078 0001279  81.8508 165.3553 15.55298491  4161
STARLINK-34983          
1 65411U 25192H   25261.91668981 -.01582483  00000+0 -25418-1 0  9993
2 65411  53.1591 321.9001 0001173 104.1164 146.9216 15.55300254  4168
STARLINK-34992          
1 65412U 25192J   25261.91668981 -.01573729  00000+0 -25267-1 0  9999
2 65412  53.1592 321.8958 0001164 101.9028 151.0537 15.55294637  4164
STARLINK-35003          
1 65413U 25192K   25261.91668981 -.01580620  00000+0 -25386-1 0  9990
2 65413  53.1593 321.8874 0001200  79.8647 176.9255 15.55298018  4164
STARLINK-34411          
1 65414U 25192L   25261.91668981 -.01581140  00000+0 -25395-1 0  9999
2 65414  53.1593 321.8921 0001150 104.0540 150.8187 15.55298877  4163
STARLINK-34238          
1 65415U 25192M   25261.91668981 -.01581221  00000+0 -25396-1 0  9991
2 65415  53.1592 321.8837 0001205  79.1694 179.5357 15.55299275  4162
STARLINK-34855          
1 65416U 25192N   25261.91668981 -.01580262  00000+0 -25379-1 0  9997
2 65416  53.1592 321.8790 0001213  80.6531 179.9696 15.55298379  4161
STARLINK-34255          
1 65417U 25192P   25261.91668981 -.01584863  00000+0 -25459-1 0  9998
2 65417  53.1592 321.8754 0001157  81.2918 181.2471 15.55301204  4164
STARLINK-34997          
1 65418U 25192Q   25261.91668981 -.01581471  00000+0 -25401-1 0  9998
2 65418  53.1595 321.8714 0001168  80.7205 183.7360 15.55298911  4163
STARLINK-35085          
1 65419U 25192R   25261.91668981 -.01579914  00000+0 -25374-1 0  9997
2 65419  53.1593 321.8679 0001142 104.2950 162.0784 15.55298608  4166
STARLINK-35138          
1 65420U 25192S   25261.91668981 -.01582785  00000+0 -25424-1 0  9995
2 65420  53.1593 321.8592 0001154  80.3811 189.8264 15.55299207  4161
STARLINK-35146          
1 65421U 25192T   25261.91668981 -.01583679  00000+0 -25439-1 0  9995
2 65421  53.1595 321.8552 0001120  81.8616 190.2609 15.55300730  4165
STARLINK-35074          
1 65422U 25192U   25261.91668981 -.01586197  00000+0 -25483-1 0  9993
2 65422  53.1590 321.8514 0001137  84.4760 189.5650 15.55301076  4167
STARLINK-34837          
1 65423U 25192V   25261.91668981 -.01579198  00000+0 -25362-1 0  9993
2 65423  53.1596 321.8631 0001181  78.1604 190.1307 15.55296957  4168
STARLINK-34670          
1 65424U 25192W   25261.91668981 -.01582043  00000+0 -25412-1 0  9993
2 65424  53.1590 321.8471 0001131  80.9590 194.9995 15.55298355  4164
STARLINK-35095          
1 65425U 25192X   25261.91668981 -.01584724  00000+0 -25458-1 0  9992
2 65425  53.1593 321.8390 0001108  79.2247 200.5669 15.55300021  4168
STARLINK-34883          
1 65426U 25192Y   25261.91668981 -.01582272  00000+0 -25415-1 0  9992
2 65426  53.1590 321.8423 0001218  80.8356 197.0393 15.55298601  4168
STARLINK-34916          
1 65427U 25192Z   25261.91668981 -.01584635  00000+0 -25454-1 0  9991
2 65427  53.1593 321.8355 0001246  81.7220 199.9838 15.55301398  4160
STARLINK-35004          
1 65428U 25192AA  25261.91668981 -.01582557  00000+0 -25420-1 0  9996
2 65428  53.1594 321.8194 0001019 103.8099 185.5640 15.55300790  4168
STARLINK-35014          
1 65429U 25192AB  25261.91668981 -.01581697  00000+0 -25406-1 0  9995
2 65429  53.1594 321.8267 0001141  82.2277 203.3155 15.55298109  4164
STARLINK-35025          
1 65430U 25192AC  25261.91668981 -.01582090  00000+0 -25412-1 0  9992
2 65430  53.1594 321.8309 0001131  81.0348 202.5909 15.55298524  4167
STARLINK-35034          
1 65431U 25192AD  25261.91668981 -.01577490  00000+0 -25333-1 0  9993
2 65431  53.1594 321.8237 0001136  80.9314 206.5284 15.55295750  4162
STARLINK-35142          
1 65434U 25194A   25261.91668981  .00107243  00000+0  27203-2 0  9999
2 65434  97.6026 113.2618 0001951 100.3984 306.2715 15.39267150  2901
STARLINK-34978          
1 65435U 25194B   25261.91668981 -.01903207  00000+0 -22979-1 0  9991
2 65435  97.6023 113.5846 0001677  77.7721 338.2572 15.63823051  2929
STARLINK-35043          
1 65436U 25194C   25261.91668981  .00287380  32889-4  90886-3 0  9995
2 65436  97.5968 113.7379 0000135 184.2523 210.2130 15.91265241  2989
STARLINK-35080          
1 65437U 25194D   25261.91668981 -.01899646  00000+0 -22934-1 0  9995
2 65437  97.6024 113.5874 0001553  74.2381 347.5534 15.63820485  2929
STARLINK-35068          
1 65438U 25194E   25261.91668981 -.01897648  00000+0 -22908-1 0  9997
2 65438  97.6024 113.5852 0001571  73.6036 344.3453 15.63819545  2926
STARLINK-35045          
1 65439U 25194F   25261.91668981 -.01903438  00000+0 -22983-1 0  9996
2 65439  97.6023 113.5863 0001558  76.4874 343.3808 15.63824332  2927
STARLINK-35050          
1 65440U 25194G   25261.91668981 -.01901779  00000+0 -22962-1 0  9991
2 65440  97.6023 113.5891 0001566  72.2076 353.4237 15.63822146  2926
STARLINK-35065          
1 65441U 25194H   25261.91668981 -.01899330  00000+0 -22929-1 0  9994
2 65441  97.6025 113.5885 0001632  73.2092 350.5013 15.63820517  2925
STARLINK-34679          
1 65442U 25194J   25261.91668981 -.01899948  00000+0 -22936-1 0  9998
2 65442  97.6026 113.5912 0001620  71.8267 357.6450 15.63822140  2975
STARLINK-34678          
1 65443U 25194K   25261.91668981 -.01897839  00000+0 -22911-1 0  9999
2 65443  97.6026 113.5930 0001558  72.8018   0.5133 15.63818757  2972
STARLINK-35049          
1 65444U 25194L   25261.91668981 -.01902946  00000+0 -22977-1 0  9998
2 65444  97.6024 113.5895 0001561  72.6237 354.9285 15.63822638  2928
STARLINK-35029          
1 65445U 25194M   25261.91668981 -.01902378  00000+0 -22970-1 0  9991
2 65445  97.6023 113.5913 0001567  74.9417 356.4521 15.63822570  2970
STARLINK-34991          
1 65446U 25194N   25261.91668981 -.01901263  00000+0 -22954-1 0  9996
2 65446  97.6023 113.5932 0001653  76.0551 359.1806 15.63821822  2920
STARLINK-34920          
1 65447U 25194P   25261.91668981 -.01814275  00000+0 -21851-1 0  9998
2 65447  97.6025 113.5940 0001623  69.6261   7.5960 15.63735683  2929
STARLINK-35030          
1 65448U 25194Q   25261.91668981 -.01899939  00000+0 -22937-1 0  9995
2 65448  97.6025 113.5964 0001702  73.4490   7.5490 15.63820961  2923
